CCSDS_OMM_VERS = 2.0
CREATION_DATE  = 
ORIGINATOR     = 

OBJECT_NAME    = STARLINK-36915
OBJECT_ID      = 2026-041X
CENTER_NAME    = EARTH
REF_FRAME      = TEME
TIME_SYSTEM    = UTC
MEAN_ELEMENT_THEORY = SGP/SGP4

EPOCH          = 2026-03-17T20:44:13.518240
MEAN_MOTION    = 15.80952239
ECCENTRICITY   = .0000454
INCLINATION    = 53.1592
RA_OF_ASC_NODE = 20.9893
ARG_OF_PERICENTER = 49.7051
MEAN_ANOMALY   = 310.4012

EPHEMERIS_TYPE = 0
CLASSIFICATION_TYPE = U
NORAD_CAT_ID   = 68061
ELEMENT_SET_NO = 999
REV_AT_EPOCH   = 251
BSTAR          = .13678E-2
MEAN_MOTION_DOT = .27921E-2
MEAN_MOTION_DDOT = 0

CCSDS_OMM_VERS = 2.0
CREATION_DATE  = 
ORIGINATOR     = 

OBJECT_NAME    = STARLINK-36952
OBJECT_ID      = 2026-041Y
CENTER_NAME    = EARTH
REF_FRAME      = TEME
TIME_SYSTEM    = UTC
MEAN_ELEMENT_THEORY = SGP/SGP4

EPOCH          = 2026-03-17T18:00:01.999296
MEAN_MOTION    = 15.75207834
ECCENTRICITY   = .0000954
INCLINATION    = 53.1595
RA_OF_ASC_NODE = 21.6562
ARG_OF_PERICENTER = 82.1915
MEAN_ANOMALY   = 301.7911

EPHEMERIS_TYPE = 0
CLASSIFICATION_TYPE = U
NORAD_CAT_ID   = 68062
ELEMENT_SET_NO = 999
REV_AT_EPOCH   = 367
BSTAR          = .2253E-3
MEAN_MOTION_DOT = .33987E-3
MEAN_MOTION_DDOT = 0

CCSDS_OMM_VERS = 2.0
CREATION_DATE  = 
ORIGINATOR     = 

OBJECT_NAME    = STARLINK-37000
OBJECT_ID      = 2026-041Z
CENTER_NAME    = EARTH
REF_FRAME      = TEME
TIME_SYSTEM    = UTC
MEAN_ELEMENT_THEORY = SGP/SGP4

EPOCH          = 2026-03-17T20:42:03.880224
MEAN_MOTION    = 15.80931374
ECCENTRICITY   = .0000878
INCLINATION    = 53.1596
RA_OF_ASC_NODE = 20.9800
ARG_OF_PERICENTER = 58.9775
MEAN_ANOMALY   = 301.1334

EPHEMERIS_TYPE = 0
CLASSIFICATION_TYPE = U
NORAD_CAT_ID   = 68063
ELEMENT_SET_NO = 999
REV_AT_EPOCH   = 251
BSTAR          = .96802E-3
MEAN_MOTION_DOT = .195262E-2
MEAN_MOTION_DDOT = 0

CCSDS_OMM_VERS = 2.0
CREATION_DATE  = 
ORIGINATOR     = 

OBJECT_NAME    = STARLINK-36996
OBJECT_ID      = 2026-041AA
CENTER_NAME    = EARTH
REF_FRAME      = TEME
TIME_SYSTEM    = UTC
MEAN_ELEMENT_THEORY = SGP/SGP4

EPOCH          = 2026-03-17T20:40:58.818432
MEAN_MOTION    = 15.81019734
ECCENTRICITY   = .0000639
INCLINATION    = 53.1591
RA_OF_ASC_NODE = 20.9736
ARG_OF_PERICENTER = 66.4716
MEAN_ANOMALY   = 293.6374

EPHEMERIS_TYPE = 0
CLASSIFICATION_TYPE = U
NORAD_CAT_ID   = 68064
ELEMENT_SET_NO = 999
REV_AT_EPOCH   = 251
BSTAR          = .19409E-2
MEAN_MOTION_DOT = .403561E-2
MEAN_MOTION_DDOT = 0

CCSDS_OMM_VERS = 2.0
CREATION_DATE  = 
ORIGINATOR     = 

OBJECT_NAME    = STARLINK-36836
OBJECT_ID      = 2026-041AB
CENTER_NAME    = EARTH
REF_FRAME      = TEME
TIME_SYSTEM    = UTC
MEAN_ELEMENT_THEORY = SGP/SGP4

EPOCH          = 2026-03-17T20:38:49.314336
MEAN_MOTION    = 15.80933517
ECCENTRICITY   = .0001125
INCLINATION    = 53.1592
RA_OF_ASC_NODE = 20.9641
ARG_OF_PERICENTER = 119.2656
MEAN_ANOMALY   = 240.8480

EPHEMERIS_TYPE = 0
CLASSIFICATION_TYPE = U
NORAD_CAT_ID   = 68065
ELEMENT_SET_NO = 999
REV_AT_EPOCH   = 251
BSTAR          = .11498E-2
MEAN_MOTION_DOT = .233123E-2
MEAN_MOTION_DDOT = 0

CCSDS_OMM_VERS = 2.0
CREATION_DATE  = 
ORIGINATOR     = 

OBJECT_NAME    = STARLINK-36976
OBJECT_ID      = 2026-041AC
CENTER_NAME    = EARTH
REF_FRAME      = TEME
TIME_SYSTEM    = UTC
MEAN_ELEMENT_THEORY = SGP/SGP4

EPOCH          = 2026-03-17T18:00:01.999296
MEAN_MOTION    = 15.75194358
ECCENTRICITY   = .0001122
INCLINATION    = 53.1594
RA_OF_ASC_NODE = 21.5536
ARG_OF_PERICENTER = 112.7881
MEAN_ANOMALY   = 320.8438

EPHEMERIS_TYPE = 0
CLASSIFICATION_TYPE = U
NORAD_CAT_ID   = 68066
ELEMENT_SET_NO = 999
REV_AT_EPOCH   = 367
BSTAR          = .3694E-3
MEAN_MOTION_DOT = .56252E-3
MEAN_MOTION_DDOT = 0

CCSDS_OMM_VERS = 2.0
CREATION_DATE  = 
ORIGINATOR     = 

OBJECT_NAME    = STARLINK-36929
OBJECT_ID      = 2026-041AD
CENTER_NAME    = EARTH
REF_FRAME      = TEME
TIME_SYSTEM    = UTC
MEAN_ELEMENT_THEORY = SGP/SGP4

EPOCH          = 2026-03-17T18:00:01.999296
MEAN_MOTION    = 15.75176263
ECCENTRICITY   = .0000897
INCLINATION    = 53.1596
RA_OF_ASC_NODE = 21.6022
ARG_OF_PERICENTER = 111.1011
MEAN_ANOMALY   = 298.6445

EPHEMERIS_TYPE = 0
CLASSIFICATION_TYPE = U
NORAD_CAT_ID   = 68067
ELEMENT_SET_NO = 999
REV_AT_EPOCH   = 367
BSTAR          = .74785E-3
MEAN_MOTION_DOT = .115253E-2
MEAN_MOTION_DDOT = 0

CCSDS_OMM_VERS = 2.0
CREATION_DATE  = 
ORIGINATOR     = 

OBJECT_NAME    = STARLINK-36990
OBJECT_ID      = 2026-041AE
CENTER_NAME    = EARTH
REF_FRAME      = TEME
TIME_SYSTEM    = UTC
MEAN_ELEMENT_THEORY = SGP/SGP4

EPOCH          = 2026-03-17T20:36:39.990816
MEAN_MOTION    = 15.81027803
ECCENTRICITY   = .000158
INCLINATION    = 53.1592
RA_OF_ASC_NODE = 20.9530
ARG_OF_PERICENTER = 164.4407
MEAN_ANOMALY   = 195.6665

EPHEMERIS_TYPE = 0
CLASSIFICATION_TYPE = U
NORAD_CAT_ID   = 68068
ELEMENT_SET_NO = 999
REV_AT_EPOCH   = 251
BSTAR          = .20762E-2
MEAN_MOTION_DOT = .4334E-2
MEAN_MOTION_DDOT = 0

CCSDS_OMM_VERS = 2.0
CREATION_DATE  = 
ORIGINATOR     = 

OBJECT_NAME    = STARLINK-36766
OBJECT_ID      = 2026-042A
CENTER_NAME    = EARTH
REF_FRAME      = TEME
TIME_SYSTEM    = UTC
MEAN_ELEMENT_THEORY = SGP/SGP4

EPOCH          = 2026-03-17T14:00:01.999872
MEAN_MOTION    = 15.80868194
ECCENTRICITY   = .0001218
INCLINATION    = 53.1599
RA_OF_ASC_NODE = 155.2209
ARG_OF_PERICENTER = 84.6935
MEAN_ANOMALY   = 188.2654

EPHEMERIS_TYPE = 0
CLASSIFICATION_TYPE = U
NORAD_CAT_ID   = 68069
ELEMENT_SET_NO = 999
REV_AT_EPOCH   = 331
BSTAR          = .69035592E-4
MEAN_MOTION_DOT = .12944E-3
MEAN_MOTION_DDOT = 0

CCSDS_OMM_VERS = 2.0
CREATION_DATE  = 
ORIGINATOR     = 

OBJECT_NAME    = STARLINK-36823
OBJECT_ID      = 2026-042B
CENTER_NAME    = EARTH
REF_FRAME      = TEME
TIME_SYSTEM    = UTC
MEAN_ELEMENT_THEORY = SGP/SGP4

EPOCH          = 2026-03-17T14:00:01.999872
MEAN_MOTION    = 15.80882487
ECCENTRICITY   = .00011898
INCLINATION    = 53.1597
RA_OF_ASC_NODE = 155.2118
ARG_OF_PERICENTER = 84.0139
MEAN_ANOMALY   = 193.2089

EPHEMERIS_TYPE = 0
CLASSIFICATION_TYPE = U
NORAD_CAT_ID   = 68070
ELEMENT_SET_NO = 999
REV_AT_EPOCH   = 331
BSTAR          = -.63370443E-4
MEAN_MOTION_DOT = -.13193E-3
MEAN_MOTION_DDOT = 0

CCSDS_OMM_VERS = 2.0
CREATION_DATE  = 
ORIGINATOR     = 

OBJECT_NAME    = STARLINK-36970
OBJECT_ID      = 2026-042C
CENTER_NAME    = EARTH
REF_FRAME      = TEME
TIME_SYSTEM    = UTC
MEAN_ELEMENT_THEORY = SGP/SGP4

EPOCH          = 2026-03-17T14:00:01.999872
MEAN_MOTION    = 15.80859465
ECCENTRICITY   = .00009783
INCLINATION    = 53.1596
RA_OF_ASC_NODE = 155.1941
ARG_OF_PERICENTER = 75.2331
MEAN_ANOMALY   = 210.5201

EPHEMERIS_TYPE = 0
CLASSIFICATION_TYPE = U
NORAD_CAT_ID   = 68071
ELEMENT_SET_NO = 999
REV_AT_EPOCH   = 332
BSTAR          = .21758212E-3
MEAN_MOTION_DOT = .42429E-3
MEAN_MOTION_DDOT = 0

CCSDS_OMM_VERS = 2.0
CREATION_DATE  = 
ORIGINATOR     = 

OBJECT_NAME    = STARLINK-36972
OBJECT_ID      = 2026-042D
CENTER_NAME    = EARTH
REF_FRAME      = TEME
TIME_SYSTEM    = UTC
MEAN_ELEMENT_THEORY = SGP/SGP4

EPOCH          = 2026-03-17T14:00:01.999872
MEAN_MOTION    = 15.80858542
ECCENTRICITY   = .00010571
INCLINATION    = 53.1596
RA_OF_ASC_NODE = 155.2031
ARG_OF_PERICENTER = 93.0129
MEAN_ANOMALY   = 188.4686

EPHEMERIS_TYPE = 0
CLASSIFICATION_TYPE = U
NORAD_CAT_ID   = 68072
ELEMENT_SET_NO = 999
REV_AT_EPOCH   = 332
BSTAR          = .24171881E-3
MEAN_MOTION_DOT = .47238E-3
MEAN_MOTION_DDOT = 0

