STARLINK-36915          
1 68061U 26041X   26076.86404535  .00279210  00000+0  13678-2 0  9997
2 68061  53.1592  20.9893 0000454  49.7051 310.4012 15.80952239  2511
STARLINK-36952          
1 68062U 26041Y   26076.75002314  .00033987  00000+0  22530-3 0  9992
2 68062  53.1595  21.6562 0000954  82.1915 301.7911 15.75207834  3678
STARLINK-37000          
1 68063U 26041Z   26076.86254491  .00195262  00000+0  96802-3 0  9998
2 68063  53.1596  20.9800 0000878  58.9775 301.1334 15.80931374  2511
STARLINK-36996          
1 68064U 26041AA  26076.86179188  .00403561  00000+0  19409-2 0  9999
2 68064  53.1591  20.9736 0000639  66.4716 293.6374 15.81019734  2516
STARLINK-36836          
1 68065U 26041AB  26076.86029299  .00233123  00000+0  11498-2 0  9992
2 68065  53.1592  20.9641 0001125 119.2656 240.8480 15.80933517  2519
STARLINK-36976          
1 68066U 26041AC  26076.75002314  .00056252  00000+0  36940-3 0  9996
2 68066  53.1594  21.5536 0001122 112.7881 320.8438 15.75194358  3673
STARLINK-36929          
1 68067U 26041AD  26076.75002314  .00115253  00000+0  74785-3 0  9993
2 68067  53.1596  21.6022 0000897 111.1011 298.6445 15.75176263  3678
STARLINK-36990          
1 68068U 26041AE  26076.85879619  .00433400  00000+0  20762-2 0  9997
2 68068  53.1592  20.9530 0001580 164.4407 195.6665 15.81027803  2515
STARLINK-36766          
1 68069U 26042A   26076.58335648  .00012944  00000+0  69036-4 0  9993
2 68069  53.1599 155.2209 0001218  84.6935 188.2654 15.80868194  3315
STARLINK-36823          
1 68070U 26042B   26076.58335648 -.00013193  00000+0 -63370-4 0  9999
2 68070  53.1597 155.2118 0001189  84.0139 193.2089 15.80882487  3310
STARLINK-36970          
1 68071U 26042C   26076.58335648  .00042429  00000+0  21758-3 0  9995
2 68071  53.1596 155.1941 0000978  75.2331 210.5201 15.80859465  3324
STARLINK-36972          
1 68072U 26042D   26076.58335648  .00047238  00000+0  24172-3 0  9992
2 68072  53.1596 155.2031 0001057  93.0129 188.4686 15.80858542  3323
